{
    "links": {
        "self": "http://www.neowsapp.com/rest/v1/neo/3836105?api_key=iIulBulltgU6a56xZRHN4H3l9WmuAYTsLGpBGhQ2"
    },
    "id": "3836105",
    "neo_reference_id": "3836105",
    "name": "(2018 VR4)",
    "designation": "2018 VR4",
    "nasa_jpl_url": "http://ssd.jpl.nasa.gov/sbdb.cgi?sstr=3836105",
    "absolute_magnitude_h": 22.5,
    "estimated_diameter": {
        "kilometers": {
            "estimated_diameter_min": 0.0840533402,
            "estimated_diameter_max": 0.1879489824
        },
        "meters": {
            "estimated_diameter_min": 84.0533402073,
            "estimated_diameter_max": 187.9489824394
        },
        "miles": {
            "estimated_diameter_min": 0.0522283081,
            "estimated_diameter_max": 0.1167860472
        },
        "feet": {
            "estimated_diameter_min": 275.7655606856,
            "estimated_diameter_max": 616.6305395464
        }
    },
    "is_potentially_hazardous_asteroid": false,
    "close_approach_data": [
        {
            "close_approach_date": "2016-11-16",
            "close_approach_date_full": "2016-Nov-16 01:28",
            "epoch_date_close_approach": 1479259680000,
            "relative_velocity": {
                "kilometers_per_second": "6.2301853726",
                "kilometers_per_hour": "22428.6673414786",
                "miles_per_hour": "13936.3016600426"
            },
            "miss_distance": {
                "astronomical": "1.8071353257",
                "lunar": "702.9756416973",
                "kilometers": "270343595.526476259",
                "miles": "167983720.7515160142"
            },
            "orbiting_body": "Juptr"
        },
        {
            "close_approach_date": "2018-10-27",
            "close_approach_date_full": "2018-Oct-27 03:17",
            "epoch_date_close_approach": 1540610220000,
            "relative_velocity": {
                "kilometers_per_second": "12.8198755812",
                "kilometers_per_hour": "46151.5520924698",
                "miles_per_hour": "28676.7796876793"
            },
            "miss_distance": {
                "astronomical": "0.1313723243",
                "lunar": "51.1038341527",
                "kilometers": "19653019.892229241",
                "miles": "12211820.2913998858"
            },
            "orbiting_body": "Earth"
        },
        {
            "close_approach_date": "2029-08-25",
            "close_approach_date_full": "2029-Aug-25 09:25",
            "epoch_date_close_approach": 1882344300000,
            "relative_velocity": {
                "kilometers_per_second": "5.1215099121",
                "kilometers_per_hour": "18437.4356835205",
                "miles_per_hour": "11456.305522352"
            },
            "miss_distance": {
                "astronomical": "1.7480570143",
                "lunar": "679.9941785627",
                "kilometers": "261505605.977839541",
                "miles": "162492048.6982100258"
            },
            "orbiting_body": "Juptr"
        }
    ],
    "orbital_data": {
        "orbit_id": "6",
        "orbit_determination_date": "2020-09-22 06:45:10",
        "first_observation_date": "2018-11-06",
        "last_observation_date": "2018-11-28",
        "data_arc_in_days": 22,
        "observations_used": 63,
        "orbit_uncertainty": "7",
        "minimum_orbit_intersection": ".0891926",
        "jupiter_tisserand_invariant": "3.064",
        "epoch_osculation": "2459000.5",
        "eccentricity": ".5947954193782941",
        "semi_major_axis": "2.649395913862691",
        "inclination": "16.48627374405616",
        "ascending_node_longitude": "211.1945764426179",
        "orbital_period": "1575.138403298613",
        "perihelion_distance": "1.073547360177593",
        "perihelion_argument": "164.2202153788483",
        "aphelion_distance": "4.225244467547789",
        "perihelion_time": "2458407.314453093834",
        "mean_anomaly": "135.5733543408094",
        "mean_motion": ".2285513445968289",
        "equinox": "J2000",
        "orbit_class": {
            "orbit_class_type": "AMO",
            "orbit_class_description": "Near-Earth asteroid orbits similar to that of 1221 Amor",
            "orbit_class_range": "1.017 AU < q (perihelion) < 1.3 AU"
        }
    },
    "is_sentry_object": false
}